NOAA 2 (ITOS-D)
1  6235U 72082A   26088.04586316 -.00000019  00000-0  17109-3 0  9994
2  6235 102.0148 105.7224 0003777 326.8428  53.9200 12.53212462444911
SOLRAD-7B
1  1291U 65016D   26088.16045770  .00000032  00000-0  62733-4 0  9995
2  1291  70.0799  46.3988 0023225 230.7251 129.1795 13.94965391105548
OSCAR-7 (AO-7)
1  7530U 74089B   26088.02669517 -.00000022  00000-0  15216-3 0  9996
2  7530 101.9957 100.4250 0011864 284.4165 140.2194 12.53696745350479
UOSAT-2 (UO-11)
1 14781U 84021B   26088.14167947  .00001706  00000-0  18006-3 0  9991
2 14781  97.7980  54.6593 0009196  88.8282 271.3989 14.90572530245204
FLTSATCOM-7 (USA-20)
1 17181U 86096A   26088.10275818 -.00000180  00000-0  00000+0 0  9992
2 17181  12.7659 340.5873 0042951 329.4653 211.1094  0.98928109151172
FLTSATCOM-8 (USA-46)
1 20253U 89077A   26087.56975346 -.00000380  00000-0  00000+0 0  9992
2 20253  12.4438 351.6472 0008059 356.3586 168.8484  1.00275102259757
OSCAR 16 (PACSAT)
1 20439U 90005D   26088.06163457  .00000163  00000-0  75112-4 0  9998
2 20439  98.8616 121.8293 0011656 105.8210 282.4424 14.33909510890457
LUSAT (LO-19)
1 20442U 90005G   26088.01710847  .00000174  00000-0  78997-4 0  9994
2 20442  98.8919 107.5906 0012675  82.3784 277.8839 14.34095944890902
UFO 2 (USA 95)
1 22787U 93056A   26086.97822622  .00000112  00000-0  00000-0 0  9993
2 22787  11.8670   3.9952 0008961 345.4330 216.7946  1.00274849117734
EYESAT-1 (AO-27)
1 22825U 93061C   26088.14619044  .00000120  00000-0  62625-4 0  9999
2 22825  98.6944 155.5673 0007890 342.8178  17.2736 14.30919393695558
ITAMSAT (IO-26) 
1 22826U 93061D   26088.14938659  .00000136  00000-0  68150-4 0  9992
2 22826  98.6892 155.4799 0008114 324.7707  35.2939 14.31344074695864
UFO 3 (USA 104)
1 23132U 94035A   26087.98933411 -.00000106  00000-0  00000+0 0  9990
2 23132  12.3324   6.1931 0004759 303.1447 224.6380  1.00266746130893
RADIO ROSTO (RS-15)
1 23439U 94085A   26088.20712186 -.00000052  00000-0 -28115-3 0  9997
2 23439  64.8147  72.5638 0153406  18.3966 342.2423 11.27583746286882
UFO 4 (USA 108)
1 23467U 95003A   26087.63794786 -.00000035  00000-0  00000+0 0  9990
2 23467   9.6920  13.4929 0003928 334.4191 240.2660  1.00268499114145
UFO 7 (USA 127)
1 23967U 96042A   26087.21017250 -.00000257  00000-0  00000+0 0  9993
2 23967  11.0397  17.5157 0003648  97.7057 114.4955  1.00239269108675
JAS-2 (FO-29)
1 24278U 96046B   26088.16480778 -.00000017  00000-0  21946-4 0  9998
2 24278  98.5349 307.9473 0349055 304.1920  52.6589 13.53269951462349
UFO 8 (USA 138)
1 25258U 98016A   26087.64619380 -.00000207  00000-0  00000-0 0  9996
2 25258  11.0350  23.2468 0007522 274.4400 273.2073  1.00282339103057
TECHSAT-1B (GO-32)
1 25397U 98043D   26087.98692606  .00000099  00000-0  62958-4 0  9991
2 25397  99.0048  78.7352 0002345  88.2224 271.9223 14.24411200439911
ISS (ZARYA)
1 25544U 98067A   26088.13267411  .00012260  00000-0  23326-3 0  9999
2 25544  51.6344 336.2407 0006215 245.2164 114.8178 15.48624340559341
UFO 10 (USA 146)
1 25967U 99063A   26088.18176703 -.00000202  00000-0  00000+0 0  9997
2 25967   9.8409  27.6281 0004576 317.4565 243.9888  1.00268636 96548
PCSAT (NO-44)
1 26931U 01043C   26088.18544699  .00000204  00000-0  10718-3 0  9995
2 26931  67.0489  91.1885 0006893 264.6555  95.3760 14.31921739278993
PROBA-1
1 26958U 01049B   26088.07811306  .00003734  00000-0  24415-3 0  9990
2 26958  97.9637  93.8224 0056340  35.1685 325.3240 15.07148060331555
SAUDISAT-1C (SO-50)
1 27607U 02058C   26088.17575870  .00001879  00000-0  23847-3 0  9993
2 27607  64.5539  16.5038 0075442 277.0481  82.2049 14.82859188252592
CUTE-1 (CO-55)
1 27844U 03031E   26087.74233344  .00000366  00000-0  17739-3 0  9990
2 27844  98.6773  97.3052 0010625  62.9133 297.3129 14.24281445180222
CUBESAT XI-IV (CO-57)
1 27848U 03031J   26087.55006450  .00000301  00000-0  15152-3 0  9995
2 27848  98.6807  96.8929 0010614  79.7322 280.5053 14.23574119179900
MOZHAYETS-4 (RS-22)
1 27939U 03042A   26088.21762486  .00001275  00000-0  20519-3 0  9994
2 27939  98.3459 270.3242 0011679 156.7690 290.0764 14.73305963203776
UFO 11 (USA 174)
1 28117U 03057A   26087.88725138 -.00000116  00000-0  00000+0 0  9997
2 28117   8.8860  34.2115 0003119 316.2968 230.6270  1.00272267 81642
CUBESAT XI-V (CO-58)
1 28895U 05043F   26087.67640956  .00002007  00000-0  32469-3 0  9996
2 28895  98.2868 241.6643 0015362 101.1756 259.1179 14.72395539 89907
CAPE-1
1 31130U 07012P   26087.90558769  .00002221  00000-0  40709-3 0  9990
2 31130  98.4393  60.2907 0083030 322.6407  36.9038 14.64668975  6605
CUTE-1.7+APD II (CO-65)
1 32785U 08021C   26088.21520637  .00009202  00000-0  59137-3 0  9997
2 32785  97.8228  68.0440 0007607 309.0033  51.0517 15.08638044973134
SEEDS-II (CO-66)
1 32791U 08021J   26087.50130163  .00022720  00000-0  78688-3 0  9998
2 32791  97.7522  81.7278 0001837 175.4551 184.6705 15.29863940974947
YUBILEINY (RS-30)
1 32953U 08025A   26088.18364508  .00000081  00000-0  50774-3 0  9991
2 32953  82.5033  45.1937 0020215 123.4599 236.8417 12.43176873809759
KKS-1 (KISEKI)
1 33499U 09002H   26088.16844703  .00002045  00000-0  25898-3 0  9992
2 33499  98.1185   9.3608 0007651 179.7014 180.4205 14.82901042924338
SWISSCUBE
1 35932U 09051B   26088.18436285  .00001512  00000-0  30917-3 0  9990
2 35932  98.4083 354.6718 0008021  99.0217 261.1892 14.62312493877465
BEESAT
1 35933U 09051C   26088.15283814  .00001256  00000-0  26274-3 0  9992
2 35933  98.4013 354.4405 0006362 110.1396 250.0489 14.61577749877497
ITUPSAT-1
1 35935U 09051E   26088.21098633  .00001150  00000-0  24801-3 0  9991
2 35935  98.4100 353.7747 0008450 121.1104 239.0925 14.60309071877061
PROBA-2
1 36037U 09059B   26087.97819277  .00000290  00000-0  78212-4 0  9990
2 36037  98.2444 272.4432 0013547 163.4714 196.6927 14.54803933869869
XIWANG-1 (HOPE-1)
1 36122U 09072B   26088.14079631  .00000416  00000-0  12044-2 0  9991
2 36122 100.3944  43.2807 0008112  58.8219 301.3688 13.16438944782476
EWS-G2 (GOES-15)
1 36411U 10008A   26088.12777348  .00000004  00000-0  00000+0 0  9990
2 36411   1.0690  84.4537 0002709  19.2530 192.1222  1.00270431 58833
TISAT-1
1 36799U 10035E   26088.07461447  .00025499  00000-0  91959-3 0  9995
2 36799  98.0655  27.7471 0003635 128.8120 231.3443 15.28514657855457
HORYU-2
1 38340U 12025D   26088.10014616  .00005278  00000-0  54569-3 0  9995
2 38340  98.2038 217.8487 0009357  87.2719 272.9569 14.90538097736793
AAUSAT-3
1 39087U 13009B   26087.98908155  .00000816  00000-0  27330-3 0  9991
2 39087  98.3700 273.6111 0012577  93.4663 266.7964 14.39831107685635
STRAND-1
1 39090U 13009E   26087.78078808  .00000369  00000-0  13860-3 0  9992
2 39090  98.3903 269.9991 0009793 109.4666 250.7580 14.37110554685513
CUBEBUG-1 (CAPITAN BETO)
1 39153U 13018D   26088.16153969  .00005669  00000-0  50036-3 0  9991
2 39153  98.1552 244.6109 0012225  57.1263 303.1132 14.96759675699090
PROBA-V
1 39159U 13021A   26088.20490835  .00000119  00000-0  70240-4 0  9997
2 39159  98.3534  70.7852 0004530  22.7070 337.4309 14.23578957669731
ZACUBE-1 (TSHEPISOSAT)
1 39417U 13066B   26088.13690990  .00005177  00000-0  40731-3 0  9999
2 39417  97.8137  50.0550 0044615 156.4937 203.8338 15.00497521668721
TRITON-1
1 39427U 13066M   26088.19383396  .00002803  00000-0  34085-3 0  9993
2 39427  97.8286 359.8334 0091625 134.2875 226.5901 14.81299932662248
DELFI-N3XT
1 39428U 13066N   26087.77108006  .00008303  00000-0  73998-3 0  9997
2 39428  97.8339   8.2225 0077487 113.6358 247.3020 14.93948801662612
GOMX-1
1 39430U 13066Q   26088.16739380  .00001727  00000-0  26646-3 0  9990
2 39430  97.6557 293.6576 0128761 335.1371  24.3666 14.69169369658163
VELOX-PII
1 39438U 13066Y   26087.80378103  .00004192  00000-0  40250-3 0  9996
2 39438  97.8667  39.1425 0051759 248.7282 110.8406 14.92621077665844
CUBEBUG-2 (LO-74)
1 39440U 13066AA  26088.13260495  .00006229  00000-0  58393-3 0  9990
2 39440  97.8831  36.8418 0056644 293.6765  65.8516 14.93170775665047
FUNCUBE-1 (AO-73)
1 39444U 13066AE  26088.14832391  .00009994  00000-0  63794-3 0  9998
2 39444  97.8202  58.0254 0038894 114.7543 245.7740 15.08248025667592
UWE-3
1 39446U 13066AG  26087.85559123  .00004336  00000-0  37942-3 0  9997
2 39446  97.8615  43.4680 0048413 226.6001 133.1185 14.96371134665565
UNISAT-6
1 40012U 14033C   26087.97669451  .00003718  00000-0  40616-3 0  9997
2 40012  97.7762 242.1733 0044633 334.3057  25.5942 14.87763111634238
DUCHIFAT-1
1 40021U 14033M   26088.11892962  .00070258  00000-0  11492-2 0  9991
2 40021  98.0602 136.8704 0003732  20.9001 339.2402 15.52278318643288
FUNCUBE-3 (EO-79)
1 40025U 14033R   26087.84226631  .00011309  00000-0  57652-3 0  9999
2 40025  98.1001  93.4257 0010265 133.3453 226.8635 15.16904902640849
SMAP
1 40376U 15003A   26088.14861494  .00000679  00000-0  14061-3 0  9997
2 40376  98.1308  96.3660 0001852  99.9325 260.2086 14.63363305595911
LILACSAT-2
1 40908U 15049K   26088.16110551  .00020366  00000-0  38064-3 0  9995
2 40908  97.4776 122.0685 0007847 168.7362 191.4065 15.48744735583354
LAPAN-A2 (IO-86)
1 40931U          25360.30710720  .00000000  00000-0  12800-3 0    00
2 40931   6.0006 332.5373 0012733 338.8432   8.1437 14.79075515    01
LQSAT
1 40958U 15057A   26088.18255644  .00000798  00000-0  12072-3 0  9992
2 40958  97.6676  85.5347 0017151 167.0928 193.0725 14.76671347563501
PRATHAM
1 41783U 16059A   26087.90296241  .00000931  00000-0  17291-3 0  9996
2 41783  97.8327  88.2983 0032665 113.3226 247.1422 14.67073547507748
ALSAT-1N
1 41789U 16059G   26087.95770981  .00001043  00000-0  18424-3 0  9999
2 41789  97.8039  94.8850 0027523  84.6869 275.7477 14.69159489508223
CAS-2T & KS-1Q
1 41847U 16066G   26088.17097214  .00001233  00000-0  18172-3 0  9999
2 41847  98.3857 164.8051 0342605  12.5347 348.4101 14.44521513493246
GOES-16
1 41866U 16071A   26088.16573365 -.00000110  00000-0  00000+0 0  9992
2 41866   0.1593  85.4870 0002177 233.9683 182.0751  1.00271594 34301
